H1 CPF  1  DLR 2022 06 24 10  6752 technosat            
H2  1704205 6203    42829 2022 06 24 00 00 00 2022 07 01 00 00 00    60 1 1  0 0 0
H9
10 0 59760  64800.000000  0        -33818.848      -1019576.059      -6897279.842
10 0 59760  64860.000000  0       -445772.094      -1212161.069      -6851138.009
10 0 59760  64920.000000  0       -857503.436      -1396061.013      -6776067.390
10 0 59760  64980.000000  0      -1267206.361      -1570512.848      -6672375.067
10 0 59760  65040.000000  0      -1673075.041      -1734808.151      -6540488.058
10 0 59760  65100.000000  0      -2073312.225      -1888296.024      -6380951.730
10 0 59760  65160.000000  0      -2466137.070      -2030385.655      -6194427.793
10 0 59760  65220.000000  0      -2849792.992      -2160548.667      -5981691.919
10 0 59760  65280.000000  0      -3222555.561      -2278321.172      -5743630.903
10 0 59760  65340.000000  0      -3582740.382      -2383305.524      -5481239.342
10 0 59760  65400.000000  0      -3928710.904      -2475171.747      -5195615.776
10 0 59760  65460.000000  0      -4258886.036      -2553658.603      -4887958.350
10 0 59760  65520.000000  0      -4571747.575      -2618574.332      -4559560.059
10 0 59760  65580.000000  0      -4865847.452      -2669797.055      -4211803.558
10 0 59760  65640.000000  0      -5139814.741      -2707274.833      -3846155.544
10 0 59760  65700.000000  0      -5392362.394      -2731025.365      -3464160.701
10 0 59760  65760.000000  0      -5622293.644      -2741135.319      -3067435.246
10 0 59760  65820.000000  0      -5828508.019      -2737759.302      -2657660.089
10 0 59760  65880.000000  0      -6010006.925      -2721118.496      -2236573.668
10 0 59760  65940.000000  0      -6165898.802      -2691498.952      -1805964.500
10 0 59760  66000.000000  0      -6295403.823      -2649249.533      -1367663.418
10 0 59760  66060.000000  0      -6397858.034      -2594779.506       -923535.546
10 0 59760  66120.000000  0      -6472716.923      -2528555.848       -475472.128
10 0 59760  66180.000000  0      -6519558.460      -2451100.228        -25382.197
10 0 59760  66240.000000  0      -6538085.536      -2362985.715        424815.886
10 0 59760  66300.000000  0      -6528127.785      -2264833.210        873202.967
10 0 59760  66360.000000  0      -6489642.738      -2157307.644       1317867.658
10 0 59760  66420.000000  0      -6422716.312      -2041113.961       1756914.857
10 0 59760  66480.000000  0      -6327562.612      -1916992.911       2188474.138
10 0 59760  66540.000000  0      -6204523.150      -1785716.682       2610707.949
10 0 59760  66600.000000  0      -6054065.507      -1648084.393       3021819.666
10 0 59760  66660.000000  0      -5876781.364      -1504917.496       3420061.514
10 0 59760  66720.000000  0      -5673383.814      -1357055.082       3803742.247
10 0 59760  66780.000000  0      -5444704.043      -1205349.131       4171234.405
10 0 59760  66840.000000  0      -5191687.516      -1050659.759       4520981.158
10 0 59760  66900.000000  0      -4915389.733       -893850.529       4851502.815
10 0 59760  66960.000000  0      -4616971.492       -735783.788       5161402.996
10 0 59760  67020.000000  0      -4297693.719       -577316.072       5449374.418
10 0 59760  67080.000000  0      -3958911.790       -419293.573       5714204.331
10 0 59760  67140.000000  0      -3602069.407       -262547.725       5954779.390
10 0 59760  67200.000000  0      -3228692.162       -107890.933       6170090.117
10 0 59760  67260.000000  0      -2840380.719         43887.530       6359234.855
10 0 59760  67320.000000  0      -2438803.742        192025.393       6521423.247
10 0 59760  67380.000000  0      -2025690.567        335791.062       6655979.284
10 0 59760  67440.000000  0      -1602823.617        474487.147       6762343.850
10 0 59760  67500.000000  0      -1172030.655        607453.763       6840076.755
10 0 59760  67560.000000  0       -735176.892        734071.577       6888858.333
10 0 59760  67620.000000  0       -294156.914        853764.613       6908490.559
10 0 59760  67680.000000  0        149113.456        966002.806       6898897.684
10 0 59760  67740.000000  0        592705.400       1070304.297       6860126.449
10 0 59760  67800.000000  0       1034685.443       1166237.488       6792345.799
10 0 59760  67860.000000  0       1473123.783       1253422.792       6695846.102
10 0 59760  67920.000000  0       1906102.627       1331534.087       6571037.921
10 0 59760  67980.000000  0       2331724.467       1400299.899       6418450.333
10 0 59760  68040.000000  0       2748120.344       1459504.291       6238728.849
10 0 59760  68100.000000  0       3153458.088       1508987.469       6032632.827
10 0 59760  68160.000000  0       3545950.383       1548646.073       5801032.340
10 0 59760  68220.000000  0       3923862.606       1578433.174       5544904.650
10 0 59760  68280.000000  0       4285520.489       1598358.004       5265330.313
10 0 59760  68340.000000  0       4629317.607       1608485.404       4963488.887
10 0 59760  68400.000000  0       4953722.705       1608934.994       4640654.231
10 0 59760  68460.000000  0       5257286.799       1599880.011       4298189.291
10 0 59760  68520.000000  0       5538649.882       1581545.875       3937540.369
10 0 59760  68580.000000  0       5796547.125       1554208.530       3560231.020
10 0 59760  68640.000000  0       6029814.696       1518192.452       3167855.758
10 0 59760  68700.000000  0       6237395.271       1473868.374       2762073.439
10 0 59760  68760.000000  0       6418343.081       1421650.805       2344600.268
10 0 59760  68820.000000  0       6571828.462       1361995.345       1917202.488
10 0 59760  68880.000000  0       6697141.831       1295395.754       1481688.780
10 0 59760  68940.000000  0       6793697.078       1222380.810       1039902.534
10 0 59760  69000.000000  0       6861034.445       1143510.992        593713.984
10 0 59760  69060.000000  0       6898822.893       1059375.015        145012.139
10 0 59760  69120.000000  0       6906861.762        970586.190       -304303.456
10 0 59760  69180.000000  0       6885081.763        877778.666       -752330.948
10 0 59760  69240.000000  0       6833545.347        781603.584      -1197174.365
10 0 59760  69300.000000  0       6752446.488        682725.116      -1636951.757
10 0 59760  69360.000000  0       6642109.882        581816.464      -2069803.276
10 0 59760  69420.000000  0       6502989.499        479555.853      -2493899.189
10 0 59760  69480.000000  0       6335666.512        376622.538      -2907447.684
10 0 59760  69540.000000  0       6140846.683        273692.803      -3308702.501
10 0 59760  69600.000000  0       5919357.139        171436.014      -3695970.359
10 0 59760  69660.000000  0       5672142.569         70510.743      -4067618.102
10 0 59760  69720.000000  0       5400260.868        -28439.017      -4422079.512
10 0 59760  69780.000000  0       5104878.314       -124787.517      -4757861.746
10 0 59760  69840.000000  0       4787264.341       -217930.777      -5073551.425
10 0 59760  69900.000000  0       4448785.902       -307289.957      -5367820.417
10 0 59760  69960.000000  0       4090901.407       -392314.583      -5639431.230
10 0 59760  70020.000000  0       3715154.307       -472485.599      -5887242.040
10 0 59760  70080.000000  0       3323166.277       -547318.245      -6110211.301
10 0 59760  70140.000000  0       2916630.069       -616364.673      -6307401.859
10 0 59760  70200.000000  0       2497302.159       -679216.333      -6477984.595
10 0 59760  70260.000000  0       2066995.201       -735506.161      -6621241.668
10 0 59760  70320.000000  0       1627570.279       -784910.545      -6736569.357
10 0 59760  70380.000000  0       1180928.940       -827151.073      -6823480.506
10 0 59760  70440.000000  0        729005.015       -861995.964      -6881606.481
10 0 59760  70500.000000  0        273756.341       -889261.219      -6910698.606
10 0 59760  70560.000000  0       -182843.540       -908811.569      -6910629.150
10 0 59760  70620.000000  0       -638813.729       -920561.147      -6881391.965
10 0 59760  70680.000000  0      -1092174.482       -924473.897      -6823102.666
10 0 59760  70740.000000  0      -1540955.702       -920563.684      -6735998.265
10 0 59760  70800.000000  0      -1983205.414       -908894.138      -6620436.364
10 0 59760  70860.000000  0      -2416998.160       -889578.245      -6476893.810
10 0 59760  70920.000000  0      -2840443.226       -862777.662      -6305964.961
10 0 59760  70980.000000  0      -3251692.830       -828701.762      -6108359.625
10 0 59760  71040.000000  0      -3648950.307       -787606.441      -5884900.510
10 0 59760  71100.000000  0      -4030478.141       -739792.620      -5636520.093
10 0 59760  71160.000000  0      -4394605.725       -685604.497      -5364257.005
10 0 59760  71220.000000  0      -4739736.865       -625427.551      -5069252.004
10 0 59760  71280.000000  0      -5064357.036       -559686.327      -4752743.501
10 0 59760  71340.000000  0      -5367040.347       -488841.982      -4416062.664
10 0 59760  71400.000000  0      -5646456.232       -413389.614      -4060628.071
10 0 59760  71460.000000  0      -5901375.737       -333855.330      -3687939.870
10 0 59760  71520.000000  0      -6130677.316       -250793.104      -3299573.527
10 0 59760  71580.000000  0      -6333352.153       -164781.526      -2897173.235
10 0 59760  71640.000000  0      -6508509.070        -76420.370      -2482444.983
10 0 59760  71700.000000  0      -6655378.899         13673.034      -2057149.275
10 0 59760  71760.000000  0      -6773318.277        104867.571      -1623093.522
10 0 59760  71820.000000  0      -6861812.854        196522.145      -1182124.133
10 0 59760  71880.000000  0      -6920479.837        287989.582       -736118.309
10 0 59760  71940.000000  0      -6949069.759        378620.601       -286975.737
99
